HST                     
1 20580U 90037B   26182.45833333  .00000764  00000-0  34567-4 0  9991
2 20580  28.4700 120.5678 0002345 280.1234  79.8765 15.09123456789012
